NAVSTAR 77 (USA 289)    
1 43873U 18109A   24007.78751669  .00000013  00000+0  00000+0 0  9998
2 43873  55.2375 127.4078 0028315 191.7607 340.0400  2.00572667 37144
